NUSAT-49 (KLARA DAN VO*)
1 60500U 24149AJ  26131.18471959  .00005876  00000+0  20354-3 0  9990
2 60500  97.3777 212.7229 0004062  77.1068 283.0627 15.30224629 96477
FLOCK 4BE-11            
1 60501U 24149AK  26131.20134036  .00011055  00000+0  26343-3 0  9996
2 60501  97.3696 214.9606 0004492  67.1541 293.0180 15.41747566 96650
YAM-7                   
1 60504U 24149AN  26131.59995109  .00004519  00000+0  15201-3 0  9995
2 60504  97.3783 212.0130 0004829  75.6641 284.5136 15.31304717 96450
FLOCK 4BE-24            
1 60505U 24149AP  26131.51260790  .00012917  00000+0  30785-3 0  9994
2 60505  97.3713 215.5222 0004629  74.3435 285.8323 15.41703173 96710
LUR-1                   
1 60506U 24149AQ  26131.48425952  .00004471  00000+0  15837-3 0  9991
2 60506  97.3739 210.5920 0005626  82.3262 277.8618 15.29617523 96362
TANAGER-1               
1 60507U 24149AR  26131.23642985  .00008893  00000+0  19332-3 0  9998
2 60507  97.3198 225.3560 0006086  82.2153 277.9787 15.44548770 97335
EAGLEEYE                
1 60508U 24149AS  26131.53109429  .00046585  00000+0  47406-3 0  9996
2 60508  97.3719 223.0275 0002003  58.1686 301.9769 15.65021232 97195
FLOCK 4BE-29            
1 60509U 24149AT  26131.48611245  .00011177  00000+0  25603-3 0  9999
2 60509  97.3804 216.8433 0003898  84.8638 275.3054 15.42938267 96755
TRANSPORTER-11 OBJECT AU
1 60510U 24149AU  26131.46790843  .00009216  00000+0  23922-3 0  9994
2 60510  97.3725 214.9264 0004806  74.1766 286.0010 15.39192201 96661
FLOCK 4BE-2             
1 60511U 24149AV  26131.53531198  .00030823  00000+0  57012-3 0  9994
2 60511  97.3820 217.9015 0003702  84.0150 276.1523 15.48985231 96826
FLOCK 4BE-13            
1 60512U 24149AW  26131.47607721  .00009264  00000+0  22742-3 0  9991
2 60512  97.3716 215.5361 0004828  57.8671 302.3043 15.40896548 96716
FLOCK 4BE-27            
1 60513U 24149AX  26131.21077209  .00005463  00000+0  16952-3 0  9999
2 60513  97.3823 213.0637 0005360  83.3999 276.7854 15.33801239 96476
FLOCK 4BE-9             
1 60514U 24149AY  26131.18786437  .00010770  00000+0  27473-3 0  9993
2 60514  97.3788 215.1346 0004051  87.1796 272.9914 15.39684900 96622
FLOCK 4BE-6             
1 60516U 24149BA  26131.18864011  .00009987  00000+0  26438-3 0  9998
2 60516  97.3787 214.5604 0004813  83.5504 276.6289 15.38565107 96583
FLOCK 4BE-14            
1 60517U 24149BB  26131.20457465  .00010054  00000+0  25517-3 0  9997
2 60517  97.3692 214.6840 0005634  80.5101 279.6782 15.39852761 96637
FLOCK 4BE-1             
1 60518U 24149BC  26131.19297362  .00010946  00000+0  26418-3 0  9995
2 60518  97.3777 215.8200 0005172  80.3491 279.8340 15.41363314 96672
FLOCK 4BE-28            
1 60519U 24149BD  26131.45626021  .00012806  00000+0  28631-3 0  9999
2 60519  97.3743 216.6986 0005242  74.6999 285.4828 15.43621202 96773
IPERDRONE.0             
1 60520U 24149BE  26131.51793430  .00039340  00000+0  45419-3 0  9992
2 60520  97.3772 223.0703 0001701  47.1685 312.9715 15.61817763 97185
TRANSPORTER-11 OBJECT BF
1 60521U 24149BF  26131.52924422  .00094233  00000+0  70769-3 0  9999
2 60521  97.3770 225.0351 0000515 352.9787   7.1469 15.72302814 97308
CONNECTA IOT-2          
1 60522U 24149BG  26131.47206545  .00002849  00000+0  12169-3 0  9995
2 60522  97.3840 210.1828 0008169  94.9179 265.2992 15.23656181 96304
PTD-R (TYVAK-0127)      
1 60523U 24149BH  26131.25064765  .00145725  00000+0  54726-3 0  9994
2 60523  97.3760 228.7308 0001143 203.0875 157.0346 15.87463120 97542
CONNECTA IOT-4          
1 60524U 24149BJ  26131.46408180  .00011458  00000+0  28162-3 0  9991
2 60524  97.3794 215.4407 0006294  72.2396 287.9537 15.40792610 96675
ORESAT0.5               
1 60525U 24149BK  26131.50927613  .00012514  00000+0  27894-3 0  9999
2 60525  97.3716 216.9900 0006269  62.6049 297.5836 15.43710185 96819
DEIMOS                  
1 60526U 24149BL  26131.45717928  .00012269  00000+0  28087-3 0  9992
2 60526  97.3776 217.0942 0006419  68.2246 291.9685 15.42917795 96783
CUAVA-2                 
1 60527U 24149BM  26131.46285772  .00007730  00000+0  22789-3 0  9991
2 60527  97.3725 212.9452 0007906  71.3979 288.8122 15.35267435 96533
ERNST                   
1 60528U 24149BN  26131.49143757  .00008923  00000+0  23889-3 0  9998
2 60528  97.3803 214.9654 0007302  75.0874 285.1179 15.38234928 96639
TORO                    
1 60530U 24149BQ  26131.59455676  .00000793  00000+0  75228-4 0  9990
2 60530  97.6790 206.9480 0001587  95.1971 264.9432 14.96284745 94481
HYPSO-2                 
1 60531U 24149BR  26131.47932237  .00001551  00000+0  13418-3 0  9996
2 60531  97.6813 208.2775 0002153 113.6363 246.5086 14.98604028 94552
LEMU NGE                
1 60532U 24149BS  26131.43677276  .00001407  00000+0  13451-3 0  9999
2 60532  97.6847 207.1417 0002542 114.5734 245.5752 14.94799480 94467
LEMUR-2-STELLA          
1 60533U 24149BT  26131.46943818  .00006228  00000+0  37683-3 0  9990
2 60533  97.6730 213.7899 0001964 123.4462 236.6955 15.10996180 94955
